STARLINK-31268
1 59245U 24049Q   26090.83335647  .00422097  77157-4  11122-2 0  9994
2 59245  42.9798 346.1275 0024912 231.8826  11.4322 15.93381905  6027
